SL-14 R/B               
1 16792U 86046B   26050.62136541  .00000402  00000+0  43611-4 0  9994
2 16792  82.4797  97.2585 0021590 288.8493  71.0382 14.85571797123729
SL-14 R/B               
1 16882U 86055B   26050.70348602  .00000492  00000+0  53844-4 0  9994
2 16882  82.5230 143.5760 0019701  35.6511 124.8328 14.85623863116699
AJISAI (EGS)            
1 16908U 86061A   26050.89569627 -.00000077  00000+0  14285-3 0  9997
2 16908  50.0084 148.0646 0011234 241.1377 225.5998 12.44515368465787
COSMOS 1812             
1 17295U 87003A   26050.94241247  .00421066  77837-4  68844-3 0  9996
2 17295  82.4739 215.8909 0003830 296.5077  63.5809 16.03248940141625
SL-14 R/B               
1 17567U 87024B   26050.59403216  .00000413  00000+0  44264-4 0  9991
2 17567  82.5272 109.7736 0017255 324.7479  35.2594 14.86114094 85440
COSMOS 1833             
1 17589U 87027A   26050.87973195 -.00000070  00000+0 -11821-4 0  9991
2 17589  70.9231   3.4470 0024840 238.8862 120.9822 14.13057301  7801
SL-16 R/B               
1 17590U 87027B   26050.90500159  .00000265  00000+0  15496-3 0  9998
2 17590  71.0039 313.9724 0004401 175.0321 185.0848 14.17164829 12821
SL-14 R/B               
1 17912U 87038B   26050.78177696  .00000432  00000+0  47325-4 0  9993
2 17912  82.5033 313.6753 0018142 220.5458 139.4407 14.85351688 76575
COSMOS 1844             
1 17973U 87041A   26050.58022165  .00000250  00000+0  15474-3 0  9999
2 17973  70.8982  72.3741 0029108  46.5932 313.7605 14.14550312  1020
SL-14 R/B               
1 18153U 87055B   26050.89657397  .00000516  00000+0  56532-4 0  9996
2 18153  82.5014   5.7966 0022258  73.5313 286.8347 14.85605551 67296
COSMOS 1867             
1 18187U 87060A   26050.90600142 -.00000022  00000+0  29314-4 0  9998
2 18187  65.0125 356.5059 0014221 277.6029  82.3440 14.31500048 17399
SL-14 R/B               
1 18749U 88001B   26050.89062493  .00000474  00000+0  52058-4 0  9998
2 18749  82.5118 212.0993 0016773 299.6857  60.2689 14.85504146 39384
