CCSDS_OMM_VERS = 2.0
CREATION_DATE  = 
ORIGINATOR     = 

OBJECT_NAME    = SL-14 R/B
OBJECT_ID      = 1986-046B
CENTER_NAME    = EARTH
REF_FRAME      = TEME
TIME_SYSTEM    = UTC
MEAN_ELEMENT_THEORY = SGP/SGP4

EPOCH          = 2026-02-19T14:54:45.971424
MEAN_MOTION    = 14.85571797
ECCENTRICITY   = .00215907
INCLINATION    = 82.4797
RA_OF_ASC_NODE = 97.2585
ARG_OF_PERICENTER = 288.8493
MEAN_ANOMALY   = 71.0382

EPHEMERIS_TYPE = 0
CLASSIFICATION_TYPE = U
NORAD_CAT_ID   = 16792
ELEMENT_SET_NO = 999
REV_AT_EPOCH   = 12372
BSTAR          = .43611123E-4
MEAN_MOTION_DOT = .402E-5
MEAN_MOTION_DDOT = 0

CCSDS_OMM_VERS = 2.0
CREATION_DATE  = 
ORIGINATOR     = 

OBJECT_NAME    = SL-14 R/B
OBJECT_ID      = 1986-055B
CENTER_NAME    = EARTH
REF_FRAME      = TEME
TIME_SYSTEM    = UTC
MEAN_ELEMENT_THEORY = SGP/SGP4

EPOCH          = 2026-02-19T16:53:01.192128
MEAN_MOTION    = 14.85623863
ECCENTRICITY   = .00197017
INCLINATION    = 82.5230
RA_OF_ASC_NODE = 143.5760
ARG_OF_PERICENTER = 35.6511
MEAN_ANOMALY   = 124.8328

EPHEMERIS_TYPE = 0
CLASSIFICATION_TYPE = U
NORAD_CAT_ID   = 16882
ELEMENT_SET_NO = 999
REV_AT_EPOCH   = 11669
BSTAR          = .53843585E-4
MEAN_MOTION_DOT = .492E-5
MEAN_MOTION_DDOT = 0

CCSDS_OMM_VERS = 2.0
CREATION_DATE  = 
ORIGINATOR     = 

OBJECT_NAME    = AJISAI (EGS)
OBJECT_ID      = 1986-061A
CENTER_NAME    = EARTH
REF_FRAME      = TEME
TIME_SYSTEM    = UTC
MEAN_ELEMENT_THEORY = SGP/SGP4

EPOCH          = 2026-02-19T21:29:48.157728
MEAN_MOTION    = 12.44515368
ECCENTRICITY   = .00112347
INCLINATION    = 50.0084
RA_OF_ASC_NODE = 148.0646
ARG_OF_PERICENTER = 241.1377
MEAN_ANOMALY   = 225.5998

EPHEMERIS_TYPE = 0
CLASSIFICATION_TYPE = U
NORAD_CAT_ID   = 16908
ELEMENT_SET_NO = 999
REV_AT_EPOCH   = 46578
BSTAR          = .14284611E-3
MEAN_MOTION_DOT = -.77E-6
MEAN_MOTION_DDOT = 0

CCSDS_OMM_VERS = 2.0
CREATION_DATE  = 
ORIGINATOR     = 

OBJECT_NAME    = COSMOS 1812
OBJECT_ID      = 1987-003A
CENTER_NAME    = EARTH
REF_FRAME      = TEME
TIME_SYSTEM    = UTC
MEAN_ELEMENT_THEORY = SGP/SGP4

EPOCH          = 2026-02-19T22:37:04.437408
MEAN_MOTION    = 16.03248940
ECCENTRICITY   = .00038303
INCLINATION    = 82.4739
RA_OF_ASC_NODE = 215.8909
ARG_OF_PERICENTER = 296.5077
MEAN_ANOMALY   = 63.5809

EPHEMERIS_TYPE = 0
CLASSIFICATION_TYPE = U
NORAD_CAT_ID   = 17295
ELEMENT_SET_NO = 999
REV_AT_EPOCH   = 14162
BSTAR          = .68844294E-3
MEAN_MOTION_DOT = .421066E-2
MEAN_MOTION_DDOT = .77837434E-4

CCSDS_OMM_VERS = 2.0
CREATION_DATE  = 
ORIGINATOR     = 

OBJECT_NAME    = SL-14 R/B
OBJECT_ID      = 1987-024B
CENTER_NAME    = EARTH
REF_FRAME      = TEME
TIME_SYSTEM    = UTC
MEAN_ELEMENT_THEORY = SGP/SGP4

EPOCH          = 2026-02-19T14:15:24.378624
MEAN_MOTION    = 14.86114094
ECCENTRICITY   = .0017255
INCLINATION    = 82.5272
RA_OF_ASC_NODE = 109.7736
ARG_OF_PERICENTER = 324.7479
MEAN_ANOMALY   = 35.2594

EPHEMERIS_TYPE = 0
CLASSIFICATION_TYPE = U
NORAD_CAT_ID   = 17567
ELEMENT_SET_NO = 999
REV_AT_EPOCH   = 8544
BSTAR          = .44264E-4
MEAN_MOTION_DOT = .413E-5
MEAN_MOTION_DDOT = 0

CCSDS_OMM_VERS = 2.0
CREATION_DATE  = 
ORIGINATOR     = 

OBJECT_NAME    = COSMOS 1833
OBJECT_ID      = 1987-027A
CENTER_NAME    = EARTH
REF_FRAME      = TEME
TIME_SYSTEM    = UTC
MEAN_ELEMENT_THEORY = SGP/SGP4

EPOCH          = 2026-02-19T21:06:48.840480
MEAN_MOTION    = 14.13057301
ECCENTRICITY   = .00248406
INCLINATION    = 70.9231
RA_OF_ASC_NODE = 3.4470
ARG_OF_PERICENTER = 238.8862
MEAN_ANOMALY   = 120.9822

EPHEMERIS_TYPE = 0
CLASSIFICATION_TYPE = U
NORAD_CAT_ID   = 17589
ELEMENT_SET_NO = 999
REV_AT_EPOCH   = 780
BSTAR          = -.11821302E-4
MEAN_MOTION_DOT = -.7E-6
MEAN_MOTION_DDOT = 0

CCSDS_OMM_VERS = 2.0
CREATION_DATE  = 
ORIGINATOR     = 

OBJECT_NAME    = SL-16 R/B
OBJECT_ID      = 1987-027B
CENTER_NAME    = EARTH
REF_FRAME      = TEME
TIME_SYSTEM    = UTC
MEAN_ELEMENT_THEORY = SGP/SGP4

EPOCH          = 2026-02-19T21:43:12.137376
MEAN_MOTION    = 14.17164829
ECCENTRICITY   = .00044013
INCLINATION    = 71.0039
RA_OF_ASC_NODE = 313.9724
ARG_OF_PERICENTER = 175.0321
MEAN_ANOMALY   = 185.0848

EPHEMERIS_TYPE = 0
CLASSIFICATION_TYPE = U
NORAD_CAT_ID   = 17590
ELEMENT_SET_NO = 999
REV_AT_EPOCH   = 1282
BSTAR          = .15496166E-3
MEAN_MOTION_DOT = .265E-5
MEAN_MOTION_DDOT = 0

CCSDS_OMM_VERS = 2.0
CREATION_DATE  = 
ORIGINATOR     = 

OBJECT_NAME    = SL-14 R/B
OBJECT_ID      = 1987-038B
CENTER_NAME    = EARTH
REF_FRAME      = TEME
TIME_SYSTEM    = UTC
MEAN_ELEMENT_THEORY = SGP/SGP4

EPOCH          = 2026-02-19T18:45:45.529344
MEAN_MOTION    = 14.85351688
ECCENTRICITY   = .00181429
INCLINATION    = 82.5033
RA_OF_ASC_NODE = 313.6753
ARG_OF_PERICENTER = 220.5458
MEAN_ANOMALY   = 139.4407

EPHEMERIS_TYPE = 0
CLASSIFICATION_TYPE = U
NORAD_CAT_ID   = 17912
ELEMENT_SET_NO = 999
REV_AT_EPOCH   = 7657
BSTAR          = .47324645E-4
MEAN_MOTION_DOT = .432E-5
MEAN_MOTION_DDOT = 0

CCSDS_OMM_VERS = 2.0
CREATION_DATE  = 
ORIGINATOR     = 

OBJECT_NAME    = COSMOS 1844
OBJECT_ID      = 1987-041A
CENTER_NAME    = EARTH
REF_FRAME      = TEME
TIME_SYSTEM    = UTC
MEAN_ELEMENT_THEORY = SGP/SGP4

EPOCH          = 2026-02-19T13:55:31.150560
MEAN_MOTION    = 14.14550312
ECCENTRICITY   = .0029108
INCLINATION    = 70.8982
RA_OF_ASC_NODE = 72.3741
ARG_OF_PERICENTER = 46.5932
MEAN_ANOMALY   = 313.7605

EPHEMERIS_TYPE = 0
CLASSIFICATION_TYPE = U
NORAD_CAT_ID   = 17973
ELEMENT_SET_NO = 999
REV_AT_EPOCH   = 102
BSTAR          = .15474E-3
MEAN_MOTION_DOT = .25E-5
MEAN_MOTION_DDOT = 0

CCSDS_OMM_VERS = 2.0
CREATION_DATE  = 
ORIGINATOR     = 

OBJECT_NAME    = SL-14 R/B
OBJECT_ID      = 1987-055B
CENTER_NAME    = EARTH
REF_FRAME      = TEME
TIME_SYSTEM    = UTC
MEAN_ELEMENT_THEORY = SGP/SGP4

EPOCH          = 2026-02-19T21:31:03.991008
MEAN_MOTION    = 14.85605551
ECCENTRICITY   = .00222587
INCLINATION    = 82.5014
RA_OF_ASC_NODE = 5.7966
ARG_OF_PERICENTER = 73.5313
MEAN_ANOMALY   = 286.8347

EPHEMERIS_TYPE = 0
CLASSIFICATION_TYPE = U
NORAD_CAT_ID   = 18153
ELEMENT_SET_NO = 999
REV_AT_EPOCH   = 6729
BSTAR          = .56531866E-4
MEAN_MOTION_DOT = .516E-5
MEAN_MOTION_DDOT = 0

CCSDS_OMM_VERS = 2.0
CREATION_DATE  = 
ORIGINATOR     = 

OBJECT_NAME    = COSMOS 1867
OBJECT_ID      = 1987-060A
CENTER_NAME    = EARTH
REF_FRAME      = TEME
TIME_SYSTEM    = UTC
MEAN_ELEMENT_THEORY = SGP/SGP4

EPOCH          = 2026-02-19T21:44:38.522688
MEAN_MOTION    = 14.31500048
ECCENTRICITY   = .00142213
INCLINATION    = 65.0125
RA_OF_ASC_NODE = 356.5059
ARG_OF_PERICENTER = 277.6029
MEAN_ANOMALY   = 82.3440

EPHEMERIS_TYPE = 0
CLASSIFICATION_TYPE = U
NORAD_CAT_ID   = 18187
ELEMENT_SET_NO = 999
REV_AT_EPOCH   = 1739
BSTAR          = .2931443E-4
MEAN_MOTION_DOT = -.22E-6
MEAN_MOTION_DDOT = 0

CCSDS_OMM_VERS = 2.0
CREATION_DATE  = 
ORIGINATOR     = 

OBJECT_NAME    = SL-14 R/B
OBJECT_ID      = 1988-001B
CENTER_NAME    = EARTH
REF_FRAME      = TEME
TIME_SYSTEM    = UTC
MEAN_ELEMENT_THEORY = SGP/SGP4

EPOCH          = 2026-02-19T21:22:29.993952
MEAN_MOTION    = 14.85504146
ECCENTRICITY   = .00167734
INCLINATION    = 82.5118
RA_OF_ASC_NODE = 212.0993
ARG_OF_PERICENTER = 299.6857
MEAN_ANOMALY   = 60.2689

EPHEMERIS_TYPE = 0
CLASSIFICATION_TYPE = U
NORAD_CAT_ID   = 18749
ELEMENT_SET_NO = 999
REV_AT_EPOCH   = 3938
BSTAR          = .52058246E-4
MEAN_MOTION_DOT = .474E-5
MEAN_MOTION_DDOT = 0

